{
  "links" : {
    "next" : "https://api.nasa.gov/neo/rest/v1/feed?start_date=1998-01-16&end_date=1998-01-16&detailed=true&api_key=t0TVs3DtDT2H8Oy2Zy8m2eVrNsAVKAexjcZXUckd",
    "prev" : "https://api.nasa.gov/neo/rest/v1/feed?start_date=1998-01-14&end_date=1998-01-14&detailed=true&api_key=t0TVs3DtDT2H8Oy2Zy8m2eVrNsAVKAexjcZXUckd",
    "self" : "https://api.nasa.gov/neo/rest/v1/feed?start_date=1998-01-15&end_date=1998-01-15&detailed=true&api_key=t0TVs3DtDT2H8Oy2Zy8m2eVrNsAVKAexjcZXUckd"
  },
  "element_count" : 5,
  "near_earth_objects" : {
    "1998-01-15" : [ {
      "links" : {
        "self" : "https://api.nasa.gov/neo/rest/v1/neo/3486442?api_key=t0TVs3DtDT2H8Oy2Zy8m2eVrNsAVKAexjcZXUckd"
      },
      "neo_reference_id" : "3486442",
      "name" : "(2010 BK2)",
      "nasa_jpl_url" : "http://ssd.jpl.nasa.gov/sbdb.cgi?sstr=3486442",
      "absolute_magnitude_h" : 22.0,
      "estimated_diameter" : {
        "kilometers" : {
          "estimated_diameter_min" : 0.1058168859,
          "estimated_diameter_max" : 0.2366137501
        },
        "meters" : {
          "estimated_diameter_min" : 105.8168859331,
          "estimated_diameter_max" : 236.6137501138
        },
        "miles" : {
          "estimated_diameter_min" : 0.0657515442,
          "estimated_diameter_max" : 0.1470249225
        },
        "feet" : {
          "estimated_diameter_min" : 347.1682720448,
          "estimated_diameter_max" : 776.2918559233
        }
      },
      "is_potentially_hazardous_asteroid" : true,
      "close_approach_data" : [ {
        "close_approach_date" : "1998-01-15",
        "epoch_date_close_approach" : 884851200000,
        "relative_velocity" : {
          "kilometers_per_second" : "12.3588228891",
          "kilometers_per_hour" : "44491.7624006498",
          "miles_per_hour" : "27645.4509205593"
        },
        "miss_distance" : {
          "astronomical" : "0.0556260573",
          "lunar" : "21.6385364532",
          "kilometers" : "8321540",
          "miles" : "5170765"
        },
        "orbiting_body" : "Earth"
      } ],
      "orbital_data" : {
        "orbit_id" : "20",
        "orbit_determination_date" : "2017-04-06 08:58:32",
        "orbit_uncertainty" : "0",
        "minimum_orbit_intersection" : ".0326204",
        "jupiter_tisserand_invariant" : "6.499",
        "epoch_osculation" : "2458000.5",
        "eccentricity" : ".447855138407079",
        "semi_major_axis" : ".9037128212690635",
        "inclination" : "6.045502360378742",
        "ascending_node_longitude" : "278.074228346833",
        "orbital_period" : "313.7936078873723",
        "perihelion_distance" : ".4989803906193552",
        "perihelion_argument" : "72.63232579457423",
        "aphelion_distance" : "1.308445251918772",
        "perihelion_time" : "2457972.766778626866",
        "mean_anomaly" : "31.81696326303706",
        "mean_motion" : "1.147250902985927",
        "equinox" : "J2000"
      }
    }, {
      "links" : {
        "self" : "https://api.nasa.gov/neo/rest/v1/neo/3602572?api_key=t0TVs3DtDT2H8Oy2Zy8m2eVrNsAVKAexjcZXUckd"
      },
      "neo_reference_id" : "3602572",
      "name" : "(2012 GV11)",
      "nasa_jpl_url" : "http://ssd.jpl.nasa.gov/sbdb.cgi?sstr=3602572",
      "absolute_magnitude_h" : 22.3,
      "estimated_diameter" : {
        "kilometers" : {
          "estimated_diameter_min" : 0.0921626549,
          "estimated_diameter_max" : 0.2060819612
        },
        "meters" : {
          "estimated_diameter_min" : 92.1626548503,
          "estimated_diameter_max" : 206.0819612321
        },
        "miles" : {
          "estimated_diameter_min" : 0.057267201,
          "estimated_diameter_max" : 0.1280533543
        },
        "feet" : {
          "estimated_diameter_min" : 302.370924539,
          "estimated_diameter_max" : 676.1219416887
        }
      },
      "is_potentially_hazardous_asteroid" : false,
      "close_approach_data" : [ {
        "close_approach_date" : "1998-01-15",
        "epoch_date_close_approach" : 884851200000,
        "relative_velocity" : {
          "kilometers_per_second" : "5.020727986",
          "kilometers_per_hour" : "18074.6207495958",
          "miles_per_hour" : "11230.8664318808"
        },
        "miss_distance" : {
          "astronomical" : "0.0960421468",
          "lunar" : "37.3603973389",
          "kilometers" : "14367701",
          "miles" : "8927676"
        },
        "orbiting_body" : "Earth"
      } ],
      "orbital_data" : {
        "orbit_id" : "26",
        "orbit_determination_date" : "2017-04-06 08:50:08",
        "orbit_uncertainty" : "3",
        "minimum_orbit_intersection" : ".0752498",
        "jupiter_tisserand_invariant" : "5.850",
        "epoch_osculation" : "2458000.5",
        "eccentricity" : ".2157184322093987",
        "semi_major_axis" : "1.045043524692945",
        "inclination" : "5.403695674733137",
        "ascending_node_longitude" : "164.6694220022337",
        "orbital_period" : "390.2114374413899",
        "perihelion_distance" : ".8196083739555992",
        "perihelion_argument" : "217.5177071850167",
        "aphelion_distance" : "1.270478675430291",
        "perihelion_time" : "2458164.262098979104",
        "mean_anomaly" : "208.9168948531081",
        "mean_motion" : ".9225767505958159",
        "equinox" : "J2000"
      }
    } ]
  }
}